start=new Date('2022-01-18T00:00:00.000Z').valueOf();
sats=[{"CENTER_NAME":"EARTH","ARG_OF_PERICENTER":"66.4351","RA_OF_ASC_NODE":"18.2219","ECCENTRICITY":"0.00014830","MEAN_MOTION":"15.06338262","FILE":"3276075","TIME_SYSTEM":"UTC","DECAY_DATE":null,"EPOCH":"2022-01-17T22:00:00.999936","NORAD_CAT_ID":"48682","OBJECT_TYPE":"PAYLOAD","SEMIMAJOR_AXIS":"6925.538","BSTAR":"0.00327860000000","PERIAPSIS":"546.376","MEAN_MOTION_DOT":"0.00048811","MEAN_MOTION_DDOT":"0.0000000000000","OBJECT_ID":"2021-044AW","LAUNCH_DATE":"2021-05-26","MEAN_ELEMENT_THEORY":"SGP4","EPHEMERIS_TYPE":"0","TLE_LINE1":"1 48682U 21044AW  22017.91667824  .00048811  00000-0  32786-2 0  9994","REV_AT_EPOCH":"358","GP_ID":"194090143","TLE_LINE2":"2 48682  53.0532  18.2219 0001483  66.4351 249.8875 15.06338262  3587","PERIOD":"95.596","ELEMENT_SET_NO":"999","INCLINATION":"53.0532","SITE":"AFETR","REF_FRAME":"TEME","CLASSIFICATION_TYPE":"U","RCS_SIZE":"LARGE","MEAN_ANOMALY":"249.8875","APOAPSIS":"548.430","COUNTRY_CODE":"US","OBJECT_NAME":"STARLINK-2743"},{"OBJECT_NAME":"STARLINK-2756","COUNTRY_CODE":"US","APOAPSIS":"548.291","REF_FRAME":"TEME","MEAN_ANOMALY":"35.1509","RCS_SIZE":"LARGE","CLASSIFICATION_TYPE":"U","PERIOD":"95.596","ELEMENT_SET_NO":"999","INCLINATION":"53.0569","SITE":"AFETR","TLE_LINE2":"2 48683  53.0569  18.2226 0001301  81.1786  35.1509 15.06342276  3581","GP_ID":"194090893","TLE_LINE1":"1 48683U 21044AX  22017.91667824  .00044567  00000-0  29967-2 0  9996","REV_AT_EPOCH":"358","MEAN_MOTION_DDOT":"0.0000000000000","MEAN_MOTION_DOT":"0.00044567","EPHEMERIS_TYPE":"0","LAUNCH_DATE":"2021-05-26","MEAN_ELEMENT_THEORY":"SGP4","OBJECT_ID":"2021-044AX","PERIAPSIS":"546.489","SEMIMAJOR_AXIS":"6925.525","OBJECT_TYPE":"PAYLOAD","BSTAR":"0.00299670000000","EPOCH":"2022-01-17T22:00:00.999936","NORAD_CAT_ID":"48683","DECAY_DATE":null,"TIME_SYSTEM":"UTC","MEAN_MOTION":"15.06342276","FILE":"3276075","RA_OF_ASC_NODE":"18.2226","ARG_OF_PERICENTER":"81.1786","CENTER_NAME":"EARTH","ECCENTRICITY":"0.00013010"},{"CENTER_NAME":"EARTH","RA_OF_ASC_NODE":"33.9691","ARG_OF_PERICENTER":"72.1195","ECCENTRICITY":"0.00014870","MEAN_MOTION":"15.06376708","FILE":"3276075","TIME_SYSTEM":"UTC","DECAY_DATE":null,"EPOCH":"2022-01-17T18:02:51.761472","NORAD_CAT_ID":"48684","OBJECT_TYPE":"PAYLOAD","SEMIMAJOR_AXIS":"6925.420","BSTAR":"-0.00008197500000","PERIAPSIS":"546.255","MEAN_MOTION_DOT":"-0.00001501","MEAN_MOTION_DDOT":"0.0000000000000","OBJECT_ID":"2021-044AY","MEAN_ELEMENT_THEORY":"SGP4","LAUNCH_DATE":"2021-05-26","EPHEMERIS_TYPE":"0","REV_AT_EPOCH":"3631","TLE_LINE1":"1 48684U 21044AY  22017.75198798 -.00001501  00000-0 -81975-4 0  9990","GP_ID":"194089142","TLE_LINE2":"2 48684  53.0582  33.9691 0001487  72.1195 287.9956 15.06376708 36313","INCLINATION":"53.0582","PERIOD":"95.594","ELEMENT_SET_NO":"999","SITE":"AFETR","REF_FRAME":"TEME","CLASSIFICATION_TYPE":"U","MEAN_ANOMALY":"287.9956","RCS_SIZE":"LARGE","APOAPSIS":"548.315","COUNTRY_CODE":"US","OBJECT_NAME":"STARLINK-2741"},{"COUNTRY_CODE":"US","OBJECT_NAME":"STARLINK-2751","REF_FRAME":"TEME","CLASSIFICATION_TYPE":"U","MEAN_ANOMALY":"208.4622","RCS_SIZE":"LARGE","APOAPSIS":"548.410","GP_ID":"194089392","TLE_LINE2":"2 48685  53.0550  18.2160 0001451  87.8660 208.4622 15.06337550  3580","PERIOD":"95.596","INCLINATION":"53.0550","ELEMENT_SET_NO":"999","SITE":"AFETR","MEAN_MOTION_DOT":"0.00047748","MEAN_MOTION_DDOT":"0.0000000000000","OBJECT_ID":"2021-044AZ","LAUNCH_DATE":"2021-05-26","EPHEMERIS_TYPE":"0","MEAN_ELEMENT_THEORY":"SGP4","REV_AT_EPOCH":"358","TLE_LINE1":"1 48685U 21044AZ  22017.91667824  .00047748  00000-0  32082-2 0  9994","OBJECT_TYPE":"PAYLOAD","SEMIMAJOR_AXIS":"6925.540","BSTAR":"0.00320820000000","PERIAPSIS":"546.400","DECAY_DATE":null,"NORAD_CAT_ID":"48685","EPOCH":"2022-01-17T22:00:00.999936","MEAN_MOTION":"15.06337550","FILE":"3276075","TIME_SYSTEM":"UTC","CENTER_NAME":"EARTH","RA_OF_ASC_NODE":"18.2160","ARG_OF_PERICENTER":"87.8660","ECCENTRICITY":"0.00014510"},{"APOAPSIS":"548.336","CLASSIFICATION_TYPE":"U","MEAN_ANOMALY":"26.2783","RCS_SIZE":"LARGE","REF_FRAME":"TEME","OBJECT_NAME":"STARLINK-2629","COUNTRY_CODE":"US","TLE_LINE1":"1 48686U 21044BA  22017.91667824  .00049067  00000-0  32944-2 0  9998","REV_AT_EPOCH":"3737","OBJECT_ID":"2021-044BA","LAUNCH_DATE":"2021-05-26","EPHEMERIS_TYPE":"0","MEAN_ELEMENT_THEORY":"SGP4","MEAN_MOTION_DOT":"0.00049067","MEAN_MOTION_DDOT":"0.0000000000000","SITE":"AFETR","PERIOD":"95.595","INCLINATION":"53.0557","ELEMENT_SET_NO":"999","GP_ID":"194062780","TLE_LINE2":"2 48686  53.0557  23.2192 0001408  62.5255  26.2783 15.06351767 37375","NORAD_CAT_ID":"48686","EPOCH":"2022-01-17T22:00:00.999936","DECAY_DATE":null,"PERIAPSIS":"546.386","BSTAR":"0.00329440000000","OBJECT_TYPE":"PAYLOAD","SEMIMAJOR_AXIS":"6925.496","ECCENTRICITY":"0.00014080","CENTER_NAME":"EARTH","ARG_OF_PERICENTER":"62.5255","RA_OF_ASC_NODE":"23.2192","TIME_SYSTEM":"UTC","FILE":"3275881","MEAN_MOTION":"15.06351767"},{"PERIAPSIS":"546.374","SEMIMAJOR_AXIS":"6925.499","OBJECT_TYPE":"PAYLOAD","BSTAR":"0.00296590000000","EPOCH":"2022-01-17T22:00:00.999936","NORAD_CAT_ID":"48687","DECAY_DATE":null,"TIME_SYSTEM":"UTC","MEAN_MOTION":"15.06350942","FILE":"3276075","RA_OF_ASC_NODE":"13.2228","ARG_OF_PERICENTER":"77.8378","CENTER_NAME":"EARTH","ECCENTRICITY":"0.00014300","OBJECT_NAME":"STARLINK-2627","COUNTRY_CODE":"US","APOAPSIS":"548.354","REF_FRAME":"TEME","RCS_SIZE":"LARGE","MEAN_ANOMALY":"0.8288","CLASSIFICATION_TYPE":"U","PERIOD":"95.595","ELEMENT_SET_NO":"999","INCLINATION":"53.0561","SITE":"AFETR","TLE_LINE2":"2 48687  53.0561  13.2228 0001430  77.8378   0.8288 15.06350942  3588","GP_ID":"194090393","TLE_LINE1":"1 48687U 21044BB  22017.91667824  .00044114  00000-0  29659-2 0  9996","REV_AT_EPOCH":"358","MEAN_MOTION_DDOT":"0.0000000000000","MEAN_MOTION_DOT":"0.00044114","LAUNCH_DATE":"2021-05-26","EPHEMERIS_TYPE":"0","MEAN_ELEMENT_THEORY":"SGP4","OBJECT_ID":"2021-044BB"},{"SITE":"AFETR","ELEMENT_SET_NO":"999","PERIOD":"95.595","INCLINATION":"53.0544","GP_ID":"194089643","TLE_LINE2":"2 48688  53.0544  13.2174 0001502  97.6774 320.9950 15.06348756  3593","REV_AT_EPOCH":"359","TLE_LINE1":"1 48688U 21044BC  22017.91667824  .00045657  00000-0  30685-2 0  9991","OBJECT_ID":"2021-044BC","EPHEMERIS_TYPE":"0","LAUNCH_DATE":"2021-05-26","MEAN_ELEMENT_THEORY":"SGP4","MEAN_MOTION_DOT":"0.00045657","MEAN_MOTION_DDOT":"0.0000000000000","OBJECT_NAME":"STARLINK-2742","COUNTRY_CODE":"US","APOAPSIS":"548.411","CLASSIFICATION_TYPE":"U","MEAN_ANOMALY":"320.9950","RCS_SIZE":"LARGE","REF_FRAME":"TEME","TIME_SYSTEM":"UTC","FILE":"3276075","MEAN_MOTION":"15.06348756","ECCENTRICITY":"0.00015020","CENTER_NAME":"EARTH","ARG_OF_PERICENTER":"97.6774","RA_OF_ASC_NODE":"13.2174","PERIAPSIS":"546.330","BSTAR":"0.00306850000000","OBJECT_TYPE":"PAYLOAD","SEMIMAJOR_AXIS":"6925.506","EPOCH":"2022-01-17T22:00:00.999936","NORAD_CAT_ID":"48688","DECAY_DATE":null},{"ECCENTRICITY":"0.00014720","RA_OF_ASC_NODE":"17.6913","ARG_OF_PERICENTER":"76.2031","CENTER_NAME":"EARTH","FILE":"3276075","MEAN_MOTION":"15.05541057","TIME_SYSTEM":"UTC","DECAY_DATE":null,"EPOCH":"2022-01-17T22:00:00.999936","NORAD_CAT_ID":"48689","BSTAR":"0.00320610000000","SEMIMAJOR_AXIS":"6927.982","OBJECT_TYPE":"PAYLOAD","PERIAPSIS":"548.828","LAUNCH_DATE":"2021-05-26","EPHEMERIS_TYPE":"0","MEAN_ELEMENT_THEORY":"SGP4","OBJECT_ID":"2021-044BD","MEAN_MOTION_DDOT":"0.0000000000000","MEAN_MOTION_DOT":"0.00046693","REV_AT_EPOCH":"358","TLE_LINE1":"1 48689U 21044BD  22017.91667824  .00046693  00000-0  32061-2 0  9993","TLE_LINE2":"2 48689  53.0556  17.6913 0001472  76.2031 213.3497 15.05541057  3589","GP_ID":"194089893","SITE":"AFETR","PERIOD":"95.647","ELEMENT_SET_NO":"999","INCLINATION":"53.0556","RCS_SIZE":"LARGE","MEAN_ANOMALY":"213.3497","CLASSIFICATION_TYPE":"U","REF_FRAME":"TEME","APOAPSIS":"550.867","COUNTRY_CODE":"US","OBJECT_NAME":"STARLINK-2617"},{"PERIAPSIS":"546.587","BSTAR":"0.00362120000000","OBJECT_TYPE":"PAYLOAD","SEMIMAJOR_AXIS":"6925.540","NORAD_CAT_ID":"48690","EPOCH":"2022-01-17T22:00:00.999936","DECAY_DATE":null,"TIME_SYSTEM":"UTC","FILE":"3276075","MEAN_MOTION":"15.06337544","ECCENTRICITY":"0.00011810","CENTER_NAME":"EARTH","RA_OF_ASC_NODE":"28.2203","ARG_OF_PERICENTER":"79.7584","OBJECT_NAME":"STARLINK-2740","COUNTRY_CODE":"US","APOAPSIS":"548.223","CLASSIFICATION_TYPE":"U","RCS_SIZE":"LARGE","MEAN_ANOMALY":"276.4374","REF_FRAME":"TEME","SITE":"AFETR","ELEMENT_SET_NO":"999","PERIOD":"95.596","INCLINATION":"53.0555","GP_ID":"194090144","TLE_LINE2":"2 48690  53.0555  28.2203 0001181  79.7584 276.4374 15.06337544  3587","TLE_LINE1":"1 48690U 21044BE  22017.91667824  .00053979  00000-0  36212-2 0  9992","REV_AT_EPOCH":"358","OBJECT_ID":"2021-044BE","LAUNCH_DATE":"2021-05-26","EPHEMERIS_TYPE":"0","MEAN_ELEMENT_THEORY":"SGP4","MEAN_MOTION_DOT":"0.00053979","MEAN_MOTION_DDOT":"0.0000000000000"},{"OBJECT_NAME":"STARLINK-2750","COUNTRY_CODE":"US","APOAPSIS":"548.365","REF_FRAME":"TEME","MEAN_ANOMALY":"80.9087","RCS_SIZE":"LARGE","CLASSIFICATION_TYPE":"U","ELEMENT_SET_NO":"999","PERIOD":"95.595","INCLINATION":"53.0596","SITE":"AFETR","TLE_LINE2":"2 48691  53.0596  23.1647 0001455  62.7620  80.9087 15.06353100  3581","GP_ID":"194090894","REV_AT_EPOCH":"358","TLE_LINE1":"1 48691U 21044BF  22017.91667824  .00044359  00000-0  29820-2 0  9992","MEAN_MOTION_DDOT":"0.0000000000000","MEAN_MOTION_DOT":"0.00044359","LAUNCH_DATE":"2021-05-26","EPHEMERIS_TYPE":"0","MEAN_ELEMENT_THEORY":"SGP4","OBJECT_ID":"2021-044BF","PERIAPSIS":"546.350","SEMIMAJOR_AXIS":"6925.492","OBJECT_TYPE":"PAYLOAD","BSTAR":"0.00298200000000","EPOCH":"2022-01-17T22:00:00.999936","NORAD_CAT_ID":"48691","DECAY_DATE":null,"TIME_SYSTEM":"UTC","MEAN_MOTION":"15.06353100","FILE":"3276075","ARG_OF_PERICENTER":"62.7620","RA_OF_ASC_NODE":"23.1647","CENTER_NAME":"EARTH","ECCENTRICITY":"0.00014550"}];
